******************************************************************************* Revised: Nov 05, 2015             134340 Pluto                             999  Fit to all available observations (PLU043/DE433) including New Horizons encounter tracking. ICRF/J2000.0 helio. ecliptic osc. elements (AU, DAYS, DEG, period=Julian yrs): EPOCH= 2457217.5 ! 2015-Jul-14 00:00:00.0000 (TDB)  EC= 2.543193766760227E-01 QR= 2.963711277830007E+01 IN= 1.736672922693450E+01  OM= 1.102097591127033E+02 W = 1.142276233642205E+02 Tp=  2447886.048708124086  N = 3.933503338914713E-03 MA= 3.670529481351401E+01 TA= 5.935219029576444E+01  A = 3.974504882021532E+01 AD= 4.985298486213057E+01 PR= 9.152146801007345E+04 NOTE:  The Horizons output log may report using DE431 as the source of target or  center data, but it is nevertheless using DE433 as an override if Pluto is   involved. This is to maintain ephemeris consistency for the New Horizons   spacecraft encounter at Pluto. PHYSICAL DATA (updated 2013-Nov-19, Mc= Charon mass, radius is IAU 2009):  Mass Pluto (10^22 kg) = 1.307+-0.018    Density Pluto:  GM (planet) km^3/s^2  = 872.4             (R = 1195 km)       = 1.83 g/cm^3  Mass ratio (Mc/Mp)    = 0.117           Radius of Pluto, Rp   = 1195 km  Surface gravity       = 61.1 cm/s^2     Geometric albedo      = 0.3   Sidereal orbit period = 249.58932 yr    Mean orbit velocity   = 4.656 km/s  Escape velocity (km/s)= 1.21*******************************************************************************  *******************************************************************************Ephemeris / WWW_USER Fri Oct 20 07:05:48 2017 Pasadena, USA      / Horizons    *******************************************************************************Target body name: Pluto (999)                     {source: plu055l_merged}Center body name: Solar System Barycenter (0)     {source: DE431mx}Center-site name: BODY CENTER*******************************************************************************Start time      : A.D. 2017-Oct-20 00:00:00.0000 TDBStop  time      : A.D. 2017-Oct-21 00:00:00.0000 TDBStep-size       : 1440 minutes*******************************************************************************Center geodetic : 0.00000000,0.00000000,0.0000000 {E-lon(deg),Lat(deg),Alt(km)}Center cylindric: 0.00000000,0.00000000,0.0000000 {E-lon(deg),Dxy(km),Dz(km)}Center radii    : (undefined)                                                  Output units    : AU-D                                                         Output type     : GEOMETRIC cartesian statesOutput format   : 3 (position, velocity, LT, range, range-rate)Reference frame : ICRF/J2000.0                                                 Coordinate systm: Ecliptic and Mean Equinox of Reference Epoch                 *******************************************************************************JDTDB   X     Y     Z   VX    VY    VZ   LT    RG    RR*******************************************************************************$$SOE2458046.500000000 = A.D. 2017-Oct-20 00:00:00.0000 TDB  X = 1.055617467780279E+01 Y =-3.171155893980367E+01 Z = 3.398734604938684E-01 VX= 3.055434179764572E-03 VY= 3.445534930791035E-04 VZ=-9.194998995737056E-04 LT= 1.930415754733018E-01 RG= 3.342411267618147E+01 RR= 6.287333669926953E-042458047.500000000 = A.D. 2017-Oct-21 00:00:00.0000 TDB  X = 1.055922937963329E+01 Y =-3.171121832274210E+01 Z = 3.389486523814952E-01 VX= 3.052421508443219E-03 VY= 3.358206948054096E-04 VZ=-9.287964130166575E-04 LT= 1.930452275124260E-01 RG= 3.342474500715415E+01 RR= 6.362687644626212E-04$$EOE*******************************************************************************Coordinate system description:  Ecliptic and Mean Equinox of Reference Epoch    Reference epoch: J2000.0    XY-plane: plane of the Earth's orbit at the reference epoch              Note: obliquity of 84381.448 arcseconds wrt ICRF equator (IAU76)    X-axis  : out along ascending node of instantaneous plane of the Earth's              orbit and the Earth's mean equator at the reference epoch    Z-axis  : perpendicular to the xy-plane in the directional (+ or -) sense              of Earth's north pole at the reference epoch.  Symbol meaning [1 au= 149597870.700 km, 1 day= 86400.0 s]:    JDTDB    Julian Day Number, Barycentric Dynamical Time      X      X-component of position vector (au)                                     Y      Y-component of position vector (au)                                     Z      Z-component of position vector (au)                                     VX     X-component of velocity vector (au/day)                                 VY     Y-component of velocity vector (au/day)                                 VZ     Z-component of velocity vector (au/day)                                 LT     One-way down-leg Newtonian light-time (day)                             RG     Range; distance from coordinate center (au)                             RR     Range-rate; radial velocity wrt coord. center (au/day)            Geometric states/elements have no aberrations applied. Computations by ...     Solar System Dynamics Group, Horizons On-Line Ephemeris System     4800 Oak Grove Drive, Jet Propulsion Laboratory     Pasadena, CA  91109   USA     Information: http://ssd.jpl.nasa.gov/     Connect    : telnet://ssd.jpl.nasa.gov:6775  (via browser)                  http://ssd.jpl.nasa.gov/?horizons                  telnet ssd.jpl.nasa.gov 6775    (via command-line)     Author     : Jon.D.Giorgini@jpl.nasa.gov*******************************************************************************